CAS-2T & KS-1Q          
1 41847U 16066G   20322.90280455  .00000133  00000-0  29620-4 0  9995
2 41847  98.6343  14.8111 0366389 131.4666 231.8601 14.38112341211471
NAYIF-1 (EO-88)         
1 42017U 17008BX  20322.91872754  .00002485  00000-0  96456-4 0  9995
2 42017  97.3438  28.1416 0007405 130.1329 230.0560 15.27003083208967
ZHUHAI-1 02 (CAS-4B)    
1 42759U 17034B   20322.83223036  .00000616  00000-0  50703-4 0  9990
2 42759  43.0191 264.2780 0011404 279.1635 176.0830 15.09952949189151
ZHUHAI-1 01 (CAS-4A)    
1 42761U 17034D   20322.83484188  .00000659  00000-0  53190-4 0  9990
2 42761  43.0190 263.4621 0011830 281.1159 175.1710 15.10032966189152
MAX VALIER SAT          
1 42778U 17036P   20322.71620006  .00001442  00000-0  64314-4 0  9999
2 42778  97.2862  11.9731 0011655 195.1854 164.9035 15.22924630189052
RADFXSAT (FOX-1B)       
1 43017U 17073E   20322.69239362  .00000921  00000-0  77398-4 0  9992
2 43017  97.7158 228.9593 0254843 271.0192  86.1835 14.79148538161818
FOX-1D (AO-92)          
1 43137U 18004AC  20322.83651241  .00001681  00000-0  71365-4 0  9992
2 43137  97.4315  32.8585 0007797 229.9599 130.0955 15.24463883158411
DIWATA-2B               
1 43678U 18084H   20322.82182390  .00000028  00000-0  85294-5 0  9994
2 43678  97.9014  81.3763 0010799  36.7872 323.4091 14.91668874111882
ES'HAIL 2               
1 43700U 18090A   20322.74413199  .00000142  00000-0  00000+0 0  9995
2 43700   0.0120 283.7387 0001494 328.5038  98.7180  1.00272211  7493
FOX-1CLIFF (AO-95)      
1 43770U 18099N   20322.84420533  .00000058  00000-0  10499-4 0  9996
2 43770  97.6914  31.4339 0015577  48.9589 311.2975 14.95096622106830
ITASAT 1                
1 43786U 18099AE  20322.74013058  .00000720  00000-0  70178-4 0  9998
2 43786  97.6930  31.8608 0016036  43.3853 316.8627 14.95419902106848
JY1SAT (JO-97)          
1 43803U 18099AX  20322.73562644  .00000725  00000-0  70303-4 0  9992
2 43803  97.6890  31.6413 0015946  43.6322 316.6157 14.95617737106840
PSAT2 (NO-104)          
1 44354U 19036R   20322.65561552  .00022302  00000-0  31904-3 0  9992
2 44354  28.5291  92.3714 0351708 150.5346 211.5566 15.06705678 76928
BRICSAT2 (NO-103)       
1 44355U 19036S   20322.64517732  .00043820  00000-0  57579-3 0  9997
2 44355  28.5301  73.6558 0318111 180.9109 179.0924 15.15278719 77102
JAISAT-1                
1 44419U 19038F   20322.86774936  .00001575  00000-0  92388-4 0  9994
2 44419  97.5596 282.8541 0020518 325.9888  34.0027 15.13081758 75797
DUCHIFAT-3              
1 44854U 19089C   20321.95506659  .00000641  00000-0  57982-4 0  9991
2 44854  36.9675 277.0254 0008707 223.4936 136.5077 14.99197945 51194
RS-44 & BREEZE-KM R/B   
1 44909U 19096E   20322.75229995  .00000022  00000-0  46508-4 0  9999
2 44909  82.5221 253.4397 0216452 227.9332 130.3179 12.79708021 41791
ORBITAL FACTORY 2 (OF-2)
1 45113U 19071C   20322.35481370  .00003500  00000-0  11574-3 0  9991
2 45113  51.6429 344.6101 0012093 248.0543 111.9154 15.34055142 44597
HUSKYSAT-1              
1 45119U 19071J   20322.76968223  .00002299  00000-0  79576-4 0  9990
2 45119  51.6428 342.1301 0011349 246.1836 113.7957 15.34223846 44650
SALSAT                  
1 46495U 20068K   20322.80314030  .00000214  00000-0  20270-4 0  9994
2 46495  97.6736 255.8298 0019067  69.2959 291.0307 15.03256049  7532
